# Year is 2000 + 18,19 of line 1, julian day is 20-22 of line1, after decimal is ms of day
COSMO-SKYMED 1          
1 31598U 07023A   19365.34283667  .00000226  00000-0  34961-4 0  9994
2 31598  97.8920  84.4159 0001527  78.3741 281.7653 14.82149700664520
COSMO-SKYMED 2          
1 32376U 07059A   19365.30908399 -.00000170  00000-0 -14850-4 0  9995
2 32376  97.8922  84.3827 0001413  90.5195 269.6158 14.82152679637266